[
  {
    "OBJECT_NAME": "STARLINK-33686",
    "OBJECT_ID": "25065Z",
    "EPOCH": "2025-11-11T07:20:17.108448",
    "MEAN_MOTION": 15.27612182,
    "ECCENTRICITY": 0.0003984,
    "INCLINATION": 42.9984,
    "RA_OF_ASC_NODE": 55.6734,
    "ARG_OF_PERICENTER": 295.9791,
    "MEAN_ANOMALY": 64.065,
    "EPHEMERIS_TYPE": 0,
    "CLASSIFICATION_TYPE": "U",
    "NORAD_CAT_ID": 63422,
    "ELEMENT_SET_NO": 999,
    "REV_AT_EPOCH": 3473,
    "BSTAR": 0.002069,
    "MEAN_MOTION_DOT": 0.00057181,
    "MEAN_MOTION_DDOT": 0.0,
    "TLE_LINE1": "1 63422U 25065Z   25315.30575357  .00057181  00000+0  20690-2 0  9996",
    "TLE_LINE2": "2 63422  42.9984  55.6734 0003984 295.9791  64.0650 15.27612182 34734",
    "COMMENT": "Grouped by shell and plane from TLE"
  },
  {
    "OBJECT_NAME": "STARLINK-33675",
    "OBJECT_ID": "25065AA",
    "EPOCH": "2025-11-11T06:34:02.044992",
    "MEAN_MOTION": 15.27564516,
    "ECCENTRICITY": 0.0001269,
    "INCLINATION": 43.004,
    "RA_OF_ASC_NODE": 55.4314,
    "ARG_OF_PERICENTER": 288.0587,
    "MEAN_ANOMALY": 72.0126,
    "EPHEMERIS_TYPE": 0,
    "CLASSIFICATION_TYPE": "U",
    "NORAD_CAT_ID": 63423,
    "ELEMENT_SET_NO": 999,
    "REV_AT_EPOCH": 3473,
    "BSTAR": 0.0014333000000000002,
    "MEAN_MOTION_DOT": 0.00039371,
    "MEAN_MOTION_DDOT": 0.0,
    "TLE_LINE1": "1 63423U 25065AA  25315.27363478  .00039371  00000+0  14333-2 0  9990",
    "TLE_LINE2": "2 63423  43.0040  55.4314 0001269 288.0587  72.0126 15.27564516 34736",
    "COMMENT": "Grouped by shell and plane from TLE"
  },
  {
    "OBJECT_NAME": "STARLINK-33655",
    "OBJECT_ID": "25065AB",
    "EPOCH": "2025-11-11T06:19:26.367168",
    "MEAN_MOTION": 15.27624884,
    "ECCENTRICITY": 0.0002125,
    "INCLINATION": 42.9992,
    "RA_OF_ASC_NODE": 56.2149,
    "ARG_OF_PERICENTER": 311.1376,
    "MEAN_ANOMALY": 48.9292,
    "EPHEMERIS_TYPE": 0,
    "CLASSIFICATION_TYPE": "U",
    "NORAD_CAT_ID": 63424,
    "ELEMENT_SET_NO": 999,
    "REV_AT_EPOCH": 3472,
    "BSTAR": 0.0013257,
    "MEAN_MOTION_DOT": 0.00036449,
    "MEAN_MOTION_DDOT": 0.0,
    "TLE_LINE1": "1 63424U 25065AB  25315.26349962  .00036449  00000+0  13257-2 0  9999",
    "TLE_LINE2": "2 63424  42.9992  56.2149 0002125 311.1376  48.9292 15.27624884 34722",
    "COMMENT": "Grouped by shell and plane from TLE"
  },
  {
    "OBJECT_NAME": "STARLINK-33608",
    "OBJECT_ID": "25065AC",
    "EPOCH": "2025-11-11T07:16:35.766336",
    "MEAN_MOTION": 15.27611237,
    "ECCENTRICITY": 4.43e-05,
    "INCLINATION": 43.0005,
    "RA_OF_ASC_NODE": 55.6438,
    "ARG_OF_PERICENTER": 296.0341,
    "MEAN_ANOMALY": 64.0465,
    "EPHEMERIS_TYPE": 0,
    "CLASSIFICATION_TYPE": "U",
    "NORAD_CAT_ID": 63425,
    "ELEMENT_SET_NO": 999,
    "REV_AT_EPOCH": 3473,
    "BSTAR": 0.0014008000000000002,
    "MEAN_MOTION_DOT": 0.00038524,
    "MEAN_MOTION_DDOT": 0.0,
    "TLE_LINE1": "1 63425U 25065AC  25315.30319174  .00038524  00000+0  14008-2 0  9998",
    "TLE_LINE2": "2 63425  43.0005  55.6438 0000443 296.0341  64.0465 15.27611237 34738",
    "COMMENT": "Grouped by shell and plane from TLE"
  },
  {
    "OBJECT_NAME": "STARLINK-33615",
    "OBJECT_ID": "25065AD",
    "EPOCH": "2025-11-11T07:48:03.110400",
    "MEAN_MOTION": 15.27648973,
    "ECCENTRICITY": 2.98e-05,
    "INCLINATION": 43.002,
    "RA_OF_ASC_NODE": 55.8257,
    "ARG_OF_PERICENTER": 16.9918,
    "MEAN_ANOMALY": 343.0944,
    "EPHEMERIS_TYPE": 0,
    "CLASSIFICATION_TYPE": "U",
    "NORAD_CAT_ID": 63426,
    "ELEMENT_SET_NO": 999,
    "REV_AT_EPOCH": 3473,
    "BSTAR": 0.0022869,
    "MEAN_MOTION_DOT": 0.00063344,
    "MEAN_MOTION_DDOT": 0.0,
    "TLE_LINE1": "1 63426U 25065AD  25315.32503600  .00063344  00000+0  22869-2 0  9992",
    "TLE_LINE2": "2 63426  43.0020  55.8257 0000298  16.9918 343.0944 15.27648973 34733",
    "COMMENT": "Grouped by shell and plane from TLE"
  },
  {
    "OBJECT_NAME": "STARLINK-34537",
    "OBJECT_ID": "25147Z",
    "EPOCH": "2025-11-11T07:27:49.389120",
    "MEAN_MOTION": 15.39696168,
    "ECCENTRICITY": 0.0001347,
    "INCLINATION": 53.16,
    "RA_OF_ASC_NODE": 54.1044,
    "ARG_OF_PERICENTER": 66.4178,
    "MEAN_ANOMALY": 293.6968,
    "EPHEMERIS_TYPE": 0,
    "CLASSIFICATION_TYPE": "U",
    "NORAD_CAT_ID": 64778,
    "ELEMENT_SET_NO": 999,
    "REV_AT_EPOCH": 2092,
    "BSTAR": 0.0019847000000000003,
    "MEAN_MOTION_DOT": 0.00080027,
    "MEAN_MOTION_DDOT": 0.0,
    "TLE_LINE1": "1 64778U 25147Z   25315.31098830  .00080027  00000+0  19847-2 0  9996",
    "TLE_LINE2": "2 64778  53.1600  54.1044 0001347  66.4178 293.6968 15.39696168 20924",
    "COMMENT": "Grouped by shell and plane from TLE"
  }
]